CCSDS_OEM_VERS = 2.0  
CREATION_DATE  = 2026-05-08T15:36:51
ORIGINATOR     = ESOC/OPS-GFA                            
 
 



META_START
OBJECT_NAME          = LISA                                    
OBJECT_ID            = -1000                                   
CENTER_NAME          = SUN                     
REF_FRAME            = EME2000 
TIME_SYSTEM          = TCB
START_TIME           = 2036-12-23T00:00:30.346418            
STOP_TIME            = 2047-09-09T06:58:06.343121            
INTERPOLATION        = HERMITE                                 
INTERPOLATION_DEGREE = 7                                       
META_STOP

2047-08-18T07:18:16.725981     7.73478047451682985e+07   -1.19087927821761593e+08   -5.02571127723363489e+07    2.54108049825343940e+01    1.39463350277813785e+01    6.05490332715401003e+00   -3.00327601103497740e-06    4.62412348957371012e-06    1.95145212336541461e-06
2047-08-19T00:17:20.934606     7.88958767117451131e+07   -1.18226567073172748e+08   -4.98832516339349225e+07    2.52253322782229219e+01    1.42280540330695118e+01    6.17378086339716425e+00   -3.06338176690508340e-06    4.59067095087719390e-06    1.93693307645633409e-06
2047-08-19T17:16:25.143230     8.04324960148076415e+07   -1.17348043781019717e+08   -4.95021491390927359e+07    2.50361978167445862e+01    1.45077075282786758e+01    6.29176214910154741e+00   -3.12304908066763111e-06    4.55656217984973058e-06    1.92213657975902285e-06
2047-08-20T10:15:29.351856     8.19574395892405361e+07   -1.16452485443689466e+08   -4.91138606165187806e+07    2.48434286603268895e+01    1.47852555084149380e+01    6.40883029338490218e+00   -3.18226965350480446e-06    4.52180121139137909e-06    1.90706500068814038e-06
2047-08-21T03:14:33.560480     8.34704860298032761e+07   -1.15540022028047234e+08   -4.87184424043938667e+07    2.46470523767089347e+01    1.50606582340072936e+01    6.52496854407323035e+00   -3.24103524899996044e-06    4.48639265697976680e-06    1.89172052595327613e-06
2047-08-21T20:13:37.769105     8.49714156307763159e+07   -1.14610785926659197e+08   -4.83159518584806100e+07    2.44470970353615833e+01    1.53338762596770284e+01    6.64016027957649868e+00   -3.29933769199532675e-06    4.45034149311890144e-06    1.87610525401541105e-06
2047-08-22T13:12:41.977730     8.64600104211707413e+07   -1.13664911926396966e+08   -4.79064473525504172e+07    2.42435912037645522e+01    1.56048704510933849e+01    6.75438900583549628e+00   -3.35716886792830200e-06    4.41365289312043865e-06    1.86022126855204807e-06
2047-08-23T06:11:46.186354     8.79360541964374781e+07   -1.12702537185833529e+08   -4.74899882727891058e+07    2.40365639437093854e+01    1.58736019929684549e+01    6.86763835718009119e+00   -3.41452072265076745e-06    4.37633210222078307e-06    1.84407069293241116e-06
2047-08-23T23:10:50.394979     8.93993325475933850e+07   -1.11723801218847692e+08   -4.70666350078461766e+07    2.38260448075988158e+01    1.61400323907408705e+01    6.97989209993768256e+00   -3.47138526272527199e-06    4.33838435602589406e-06    1.82765572569935603e-06
2047-08-24T16:09:54.603603     9.08496328886821270e+07   -1.10728845881854624e+08   -4.66364489361926615e+07    2.36120638347131617e+01    1.64041234685979020e+01    7.09113413763066625e+00   -3.52775455620977092e-06    4.29981484229933652e-06    1.81097865706440953e-06
2047-08-25T09:08:58.812228     9.22867444834868163e+07   -1.09717815362079725e+08   -4.61994924124526829e+07    2.33946515474142949e+01    1.66658373664855084e+01    7.20134851660172526e+00   -3.58362073391110974e-06    4.26062870606697920e-06    1.79404186640488824e-06
2047-08-26T02:08:03.020852     9.37104584724124223e+07   -1.08690856164292991e+08   -4.57558287543735877e+07    2.31738389472578277e+01    1.69251365387559325e+01    7.31051943090575218e+00   -3.63897599113604329e-06    4.22083109807644583e-06    1.77684780077906305e-06
2047-08-26T19:07:07.229477     9.51205679004551321e+07   -1.07648117093421608e+08   -4.53055222320998237e+07    2.29496575109840037e+01    1.71819837571024507e+01    7.41863122530721508e+00   -3.69381258991113421e-06    4.18042726657549985e-06    1.75939893444420567e-06
2047-08-27T12:06:11.438102     9.65168677471764088e+07   -1.06589749230457529e+08   -4.48486380614153892e+07    2.27221391863579960e+01    1.74363421204307762e+01    7.52566839522178199e+00   -3.74812286168518610e-06    4.13942269242411052e-06    1.74169770938391539e-06
2047-08-28T05:05:15.646726     9.78991549595991671e+07   -1.05515905899077997e+08   -4.43852424026200399e+07    2.24913163878300715e+01    1.76881750743167956e+01    7.63161558244102256e+00   -3.80189921051446184e-06    4.09782326753915403e-06    1.72374645684414549e-06
2047-08-28T22:04:19.855351     9.92672284889433980e+07   -1.04426742620395720e+08   -4.39154023667041138e+07    2.22572219919863272e+01    1.79374464427001499e+01    7.73645756547895758e+00   -3.85513411674451510e-06    4.05563551670149432e-06    1.70554729989052657e-06
2047-08-29T15:03:24.063975     1.00620889332119197e+08   -1.03322417053256676e+08   -4.34391860304871053e+07    2.20198893327604779e+01    1.81841204744632527e+01    7.84017924337933270e+00   -3.90782014111313331e-06    4.01286686260308705e-06    1.68710203693525851e-06
2047-08-30T07:03:04.206422     1.01882292333265528e+08   -1.02268743022657186e+08   -4.29849603198643029e+07    2.17934603346002262e+01    1.84140095950484692e+01    7.93681738438301920e+00   -3.95692662722763872e-06    3.97206233092167348e-06    1.66951053456248192e-06
2047-08-30T23:02:44.348869     1.03130576391941994e+08   -1.01201899869217396e+08   -4.25251994520721659e+07    2.15642181287743000e+01    1.86415345692637615e+01    8.03243645991968158e+00   -4.00553363842642547e-06    3.93075097243759093e-06    1.65170597652378831e-06
2047-08-31T15:02:24.491316     1.04365580358646497e+08   -1.00122024559735402e+08   -4.20599624576584026e+07    2.13321916496243134e+01    1.88666663589101908e+01    8.12702426471069828e+00   -4.05363512174506570e-06    3.88893783076729279e-06    1.63369053718657680e-06
2047-09-01T07:02:04.633762     1.05587144752113685e+08   -9.90292557210078537e+07   -4.15893090648283809e+07    2.10974101785430364e+01    1.90893762177140474e+01    8.22056871931393296e+00   -4.10122507616845847e-06    3.84662800258216604e-06    1.61546641322212344e-06
2047-09-01T23:01:44.776209     1.06795111785945356e+08   -9.79237336261721104e+07   -4.11132996935067549e+07    2.08599033409001358e+01    1.93096356944504493e+01    8.31305787143677755e+00   -4.14829755537178846e-06    3.80382663981840331e-06    1.59703582453158354e-06
2047-09-02T15:01:24.918655     1.07989325391847283e+08   -9.68056001793170571e+07   -4.06319954486795366e+07    2.06197011028242834e+01    1.95274166361761523e+01    8.40447989729494083e+00   -4.19484667004152849e-06    3.76053895134671661e-06    1.57840101494444393e-06
2047-09-03T07:01:05.061102     1.09169631240184143e+08   -9.56749988986929655e+07   -4.01454581131536961e+07    2.03768337678635518e+01    1.97426911915430630e+01    8.49482310300492571e+00   -4.24086658978260016e-06    3.71677020410613879e-06    1.55956425269113144e-06
2047-09-03T23:00:45.203549     1.10335876758550063e+08   -9.45320748988597840e+07   -3.96537501398750469e+07    2.01313319735481215e+01    1.99554318141614040e+01    8.58407592599715130e+00   -4.28635154460269755e-06    3.67252572369351820e-06    1.54052783064626142e-06
2047-09-04T15:00:25.345995     1.11487911149052680e+08   -9.33769748721135110e+07   -3.91569346439455897e+07    1.98832266878792971e+01    2.01656112659815108e+01    8.67222693643661380e+00   -4.33129582598963087e-06    3.62781089442343658e-06    1.52129406634875673e-06
2047-09-05T07:00:05.488441     1.12625585405008316e+08   -9.22098470695301145e+07   -3.86550753944810629e+07    1.96325492057688464e+01    2.03732026206632284e+01    8.75926483863803895e+00   -4.37569378755586866e-06    3.58263115883458957e-06    1.50186530178869989e-06
2047-09-05T22:59:45.630888     1.13748752327746108e+08   -9.10308412819667906e+07   -3.81482368064498752e+07    1.93793311454526815e+01    2.05781792669019232e+01    8.84517847246245204e+00   -4.41953984528670054e-06    3.53699201667566804e-06    1.48224390297491669e-06
2047-09-06T14:59:25.773335     1.14857266544218719e+08   -8.98401088213599771e+07   -3.76364839326341450e+07    1.91236044449028562e+01    2.07805149116800258e+01    8.92995681468206115e+00   -4.46282847736067397e-06    3.49089902334470584e-06    1.46243225927208667e-06
2047-09-07T06:59:05.915782     1.15950984526117429e+08   -8.86378025026595742e+07   -3.71198824558540583e+07    1.88654013582619058e+01    2.09801835834130941e+01    9.01358898030042788e+00   -4.50555422353142018e-06    3.44435778776530515e-06    1.44243278250090020e-06
2047-09-07T22:58:46.058228     1.17029764611189276e+08   -8.74240766267392784e+07   -3.65984986815962866e+07    1.86047544523235189e+01    2.11771596349594091e+01    9.09606422381481039e+00   -4.54771168415125480e-06    3.39737396978343664e-06    1.42224790583580313e-06
2047-09-08T14:58:26.200675     1.18093467027454123e+08   -8.61990869646223783e+07   -3.60723995311875716e+07    1.83416966030836264e+01    2.13714177464620612e+01    9.17737194040763171e+00   -4.58929551872316400e-06    3.34995327697133294e-06    1.40188008245319337e-06
